     2              NAVIGATION DATA                         RINEX VERSION / TYPE
CCRINEXN V1.6.0 UX  CDDIS               22-MAY-18 15:43     PGM / RUN BY / DATE 
IGS BROADCAST EPHEMERIS FILE                                COMMENT             
    0.1118D-07  0.7451D-08 -0.5960D-07 -0.5960D-07          ION ALPHA           
    0.9011D+05  0.0000D+00 -0.1966D+06 -0.6554D+05          ION BETA            
    0.186264514923D-08 0.888178419700D-14   589824     1992 DELTA-UTC: A0,A1,T,W
    18                                                      LEAP SECONDS        
                                                            END OF HEADER       
11 18  3 15 18  0  0.0-0.737358815968D-03-0.227373675443D-12 0.000000000000D+00
    0.690000000000D+02 0.261562500000D+02 0.602167939855D-08 0.266523662347D+01
    0.139325857163D-05 0.167329567485D-01 0.605359673500D-06 0.515361636734D+04
    0.410400000000D+06 0.160187482834D-06-0.179391338884D+01 0.298023223877D-07
    0.904120336538D+00 0.335781250000D+03 0.174453558220D+01-0.884143971002D-08
    0.200008331150D-10 0.100000000000D+01 0.199200000000D+04 0.000000000000D+00
    0.200000000000D+01 0.000000000000D+00-0.121071934700D-07 0.690000000000D+02
    0.407778000000D+06 0.400000000000D+01 0.000000000000D+00 0.000000000000D+00
12 18  3 15 18  0  0.0 0.345184002072D-03-0.204636307899D-11 0.000000000000D+00
    0.240000000000D+02 0.559375000000D+01 0.359729269882D-08 0.210684445576D+01
    0.819563865662D-07 0.707619939931D-02 0.120270997286D-04 0.515363672829D+04
    0.410400000000D+06-0.949949026108D-07 0.287450198131D+01-0.121071934700D-06
    0.987481929112D+00 0.160843750000D+03 0.935026811391D+00-0.747245411485D-08
   -0.332156692802D-09 0.100000000000D+01 0.199200000000D+04 0.000000000000D+00
    0.200000000000D+01 0.000000000000D+00-0.125728547573D-07 0.240000000000D+02
    0.403200000000D+06 0.400000000000D+01 0.000000000000D+00 0.000000000000D+00
13 18  3 15 18  0  0.0-0.955183058977D-04 0.113686837722D-12 0.000000000000D+00
    0.820000000000D+02 0.551562500000D+02 0.456804742037D-08-0.215721309535D+01
    0.291317701340D-05 0.361970800441D-02 0.722520053387D-05 0.515365803719D+04
    0.410400000000D+06 0.000000000000D+00 0.835798159171D+00 0.391155481338D-07
    0.968745744789D+00 0.243062500000D+03 0.161756080876D+01-0.804533512050D-08
    0.568952270574D-09 0.100000000000D+01 0.199200000000D+04 0.000000000000D+00
    0.200000000000D+01 0.000000000000D+00-0.111758708954D-07 0.820000000000D+02
    0.403200000000D+06 0.400000000000D+01 0.000000000000D+00 0.000000000000D+00
14 18  3 15 18  0  0.0-0.951578840613D-04-0.454747350886D-12 0.000000000000D+00
    0.500000000000D+02 0.562812500000D+02 0.483198681067D-08-0.106612870349D+01
    0.314600765705D-05 0.945852627046D-02 0.729039311409D-05 0.515374118805D+04
    0.410400000000D+06 0.745058059692D-08 0.794390540892D+00 0.247731804848D-06
    0.961327759731D+00 0.240812500000D+03-0.195871903217D+01-0.825570101171D-08
    0.554308821066D-09 0.100000000000D+01 0.199200000000D+04 0.000000000000D+00
    0.200000000000D+01 0.000000000000D+00-0.977888703346D-08 0.500000000000D+02
    0.403230000000D+06 0.000000000000D+00 0.000000000000D+00 0.000000000000D+00
15 18  3 15 18  0  0.0-0.356392934918D-03 0.341060513165D-12 0.000000000000D+00
    0.870000000000D+02 0.611250000000D+02 0.533772233756D-08-0.158173246013D+01
    0.303797423840D-05 0.101732090115D-01 0.813044607639D-05 0.515370581818D+04
    0.410400000000D+06 0.130385160446D-06 0.636280151348D+00-0.875443220139D-07
    0.928679148403D+00 0.199750000000D+03 0.671816242586D+00-0.837963475971D-08
    0.653598653579D-09 0.100000000000D+01 0.199200000000D+04 0.000000000000D+00
    0.200000000000D+01 0.000000000000D+00-0.107102096081D-07 0.870000000000D+02
    0.403200000000D+06 0.400000000000D+01 0.000000000000D+00 0.000000000000D+00
16 18  3 15 18  0  0.0 0.301897525787D-04-0.909494701773D-12 0.000000000000D+00
    0.680000000000D+02 0.214375000000D+02 0.370658304050D-08 0.205797169673D+00
    0.119209289551D-05 0.998731434811D-02 0.120475888252D-04 0.515360461235D+04
    0.410400000000D+06 0.763684511185D-07 0.289338536006D+01 0.109896063805D-06
    0.987928862288D+00 0.157906250000D+03 0.481785499889D+00-0.769103447595D-08
   -0.372515518432D-09 0.100000000000D+01 0.199200000000D+04 0.000000000000D+00
    0.200000000000D+01 0.000000000000D+00-0.107102096081D-07 0.680000000000D+02
    0.403230000000D+06 0.000000000000D+00 0.000000000000D+00 0.000000000000D+00
17 18  3 15 18  0  0.0-0.115479342639D-03 0.318323145621D-11 0.000000000000D+00
    0.590000000000D+02 0.928437500000D+02 0.420624646225D-08-0.845651537101D+00
    0.495836138725D-05 0.123050075490D-01 0.676140189171D-05 0.515377575302D+04
    0.410400000000D+06-0.137835741043D-06-0.237486095038D+01 0.163912773132D-06
    0.982261634683D+00 0.264156250000D+03-0.178348426487D+01-0.821569923204D-08
    0.338228361985D-09 0.100000000000D+01 0.199200000000D+04 0.000000000000D+00
    0.200000000000D+01 0.000000000000D+00-0.111758708954D-07 0.590000000000D+02
    0.403200000000D+06 0.000000000000D+00 0.000000000000D+00 0.000000000000D+00
18 18  3 15 18  0  0.0-0.766012817621D-05-0.142108547152D-10 0.000000000000D+00
    0.133000000000D+03-0.581875000000D+02 0.499949396328D-08 0.310000200670D+01
   -0.292621552944D-05 0.142912149895D-01 0.194273889065D-05 0.515367527389D+04
    0.410400000000D+06 0.115483999252D-06-0.141711283562D+01-0.316649675369D-07
    0.948419368514D+00 0.335031250000D+03 0.129543847185D+01-0.835070498324D-08
   -0.179650340301D-09 0.100000000000D+01 0.199200000000D+04 0.000000000000D+00
    0.200000000000D+01 0.630000000000D+02-0.651925802231D-08 0.133000000000D+03
    0.405258000000D+06 0.400000000000D+01 0.000000000000D+00 0.000000000000D+00
19 18  3 15 18  0  0.0-0.450645573437D-03 0.261479726760D-11 0.000000000000D+00
    0.103000000000D+03 0.894375000000D+02 0.416767376166D-08 0.218673432869D+01
    0.432133674622D-05 0.975271977950D-02 0.622309744358D-05 0.515370372963D+04
    0.410400000000D+06 0.130385160446D-07-0.232772247194D+01-0.186264514923D-06
    0.979689112258D+00 0.268218750000D+03 0.113660031713D+01-0.793390153575D-08
    0.291440704903D-09 0.100000000000D+01 0.199200000000D+04 0.000000000000D+00
    0.200000000000D+01 0.000000000000D+00-0.153668224812D-07 0.103000000000D+03
    0.403200000000D+06 0.000000000000D+00 0.000000000000D+00 0.000000000000D+00
20 18  3 15 18  0  0.0 0.503261573613D-03 0.102318153950D-11 0.000000000000D+00
    0.130000000000D+02-0.765625000000D+02 0.491377610707D-08-0.207350893564D+01
   -0.373087823391D-05 0.433583639096D-02 0.105630606413D-04 0.515482796478D+04
    0.410400000000D+06 0.186264514923D-08-0.435636938621D+00 0.875443220139D-07
    0.928384872191D+00 0.154531250000D+03 0.190100809013D+01-0.820105589261D-08
   -0.739316509786D-10 0.100000000000D+01 0.199200000000D+04 0.000000000000D+00
    0.200000000000D+01 0.000000000000D+00-0.838190317154D-08 0.130000000000D+02
    0.403200000000D+06 0.400000000000D+01 0.000000000000D+00 0.000000000000D+00
21 18  3 15 18  0  0.0-0.419205520302D-03 0.454747350886D-11 0.000000000000D+00
    0.600000000000D+02-0.583437500000D+02 0.515307174709D-08 0.161404413217D+01
   -0.362470746040D-05 0.245017973939D-01 0.224448740482D-05 0.515374424934D+04
    0.410400000000D+06 0.173225998878D-06-0.142380429605D+01-0.616535544395D-06
    0.942644455508D+00 0.326906250000D+03-0.158144293402D+01-0.857535731313D-08
   -0.172150030342D-09 0.100000000000D+01 0.199200000000D+04 0.000000000000D+00
    0.200000000000D+01 0.000000000000D+00-0.102445483208D-07 0.600000000000D+02
    0.405810000000D+06 0.000000000000D+00 0.000000000000D+00 0.000000000000D+00
23 18  3 15 18  0  0.0-0.218579079956D-03 0.227373675443D-12 0.000000000000D+00
    0.220000000000D+02 0.541562500000D+02 0.504342434482D-08-0.205105803951D+01
    0.249780714512D-05 0.121130866464D-01 0.792741775513D-05 0.515357820511D+04
    0.410400000000D+06 0.180676579475D-06 0.704245000734D+00-0.782310962677D-07
    0.943900521360D+00 0.213750000000D+03-0.238752651182D+01-0.816212608612D-08
    0.758960172487D-09 0.100000000000D+01 0.199200000000D+04 0.000000000000D+00
    0.200000000000D+01 0.000000000000D+00-0.200234353542D-07 0.220000000000D+02
    0.407370000000D+06 0.000000000000D+00 0.000000000000D+00 0.000000000000D+00
24 18  3 15 18  0  0.0-0.473083928227D-04-0.454747350886D-12 0.000000000000D+00
    0.260000000000D+02-0.284062500000D+02 0.546594196414D-08-0.265944928590D+01
   -0.157766044140D-05 0.688134017400D-02 0.428408384323D-05 0.515364938927D+04
    0.410400000000D+06-0.223517417908D-07 0.172503321502D+01-0.225380063057D-06
    0.941925325942D+00 0.286843750000D+03 0.537704772511D+00-0.857285709391D-08
   -0.226438003480D-09 0.100000000000D+01 0.199200000000D+04 0.000000000000D+00
    0.200000000000D+01 0.000000000000D+00 0.279396772385D-08 0.260000000000D+02
    0.403200000000D+06 0.400000000000D+01 0.000000000000D+00 0.000000000000D+00
25 18  3 15 18  0  0.0-0.553956255317D-03-0.602540239925D-11 0.000000000000D+00
    0.990000000000D+02 0.375000000000D+00 0.397873733959D-08 0.165295572255D+01
   -0.111758708954D-07 0.733533420134D-02 0.120792537928D-04 0.515368010330D+04
    0.410400000000D+06-0.173225998878D-06 0.281567859101D+01 0.316649675369D-07
    0.975134664993D+00 0.156312500000D+03 0.822803075428D+00-0.773103625562D-08
   -0.378230030629D-09 0.100000000000D+01 0.199200000000D+04 0.000000000000D+00
    0.200000000000D+01 0.000000000000D+00 0.558793544769D-08 0.990000000000D+02
    0.000000000000D+00 0.000000000000D+00 0.000000000000D+00 0.000000000000D+00
